{
  "type": "FeatureCollection",
  "features": [
    {
      "type": "Feature",
      "properties": {
        "norad_id": 33651,
        "name": "FENGYUN 1C DEB",
        "group": "fengyun-1c-debris",
        "lat": -33.59842629031808,
        "lon": -143.81710110065305,
        "alt_km": 913.9132260256483,
        "timestamp": "2025-12-22T14:45:57.689756+00:00",
        "meta_object_name": "FENGYUN 1C DEB",
        "meta_object_id": "1999-025DEL",
        "meta_epoch": "2025-12-21T09:01:21.702432",
        "meta_mean_motion": 14.20361447,
        "meta_eccentricity": 0.01173993,
        "meta_inclination": 98.6555,
        "meta_ra_of_asc_node": 40.778,
        "meta_arg_of_pericenter": 29.2021,
        "meta_mean_anomaly": 331.5653,
        "meta_ephemeris_type": 0,
        "meta_classification_type": "U",
        "meta_norad_cat_id": 33651,
        "meta_element_set_no": 999,
        "meta_rev_at_epoch": 64394,
        "meta_bstar": 0.00012970864,
        "meta_mean_motion_dot": 2.55e-06,
        "meta_mean_motion_ddot": 0,
        "tle_line1": "1 33651U 99025DEL 25355.37594563  .00000255  00000+0  12971-3 0  9999",
        "tle_line2": "2 33651  98.6555  40.7780 0117399  29.2021 331.5653 14.20361447643944"
      },
      "geometry": {
        "type": "Point",
        "coordinates": [
          -143.81710110065305,
          -33.59842629031808
        ]
      }
    },
    {
      "type": "Feature",
      "properties": {
        "norad_id": 33655,
        "name": "FENGYUN 1C DEB",
        "group": "fengyun-1c-debris",
        "lat": 36.357758590165155,
        "lon": -110.33578287599386,
        "alt_km": 602.7112472690187,
        "timestamp": "2025-12-22T14:45:57.689766+00:00",
        "meta_object_name": "FENGYUN 1C DEB",
        "meta_object_id": "1999-025DEQ",
        "meta_epoch": "2025-12-21T23:42:04.262112",
        "meta_mean_motion": 14.98052954,
        "meta_eccentricity": 0.00467044,
        "meta_inclination": 98.8001,
        "meta_ra_of_asc_node": 62.4091,
        "meta_arg_of_pericenter": 328.0834,
        "meta_mean_anomaly": 31.7557,
        "meta_ephemeris_type": 0,
        "meta_classification_type": "U",
        "meta_norad_cat_id": 33655,
        "meta_element_set_no": 999,
        "meta_rev_at_epoch": 96696,
        "meta_bstar": 0.0019237812,
        "meta_mean_motion_dot": 0.00023252,
        "meta_mean_motion_ddot": 0,
        "tle_line1": "1 33655U 99025DEQ 25355.98754933  .00023252  00000+0  19238-2 0  9993",
        "tle_line2": "2 33655  98.8001  62.4091 0046704 328.0834  31.7557 14.98052954966962"
      },
      "geometry": {
        "type": "Point",
        "coordinates": [
          -110.33578287599386,
          36.357758590165155
        ]
      }
    },
    {
      "type": "Feature",
      "properties": {
        "norad_id": 33656,
        "name": "FENGYUN 1C DEB",
        "group": "fengyun-1c-debris",
        "lat": 65.55391714545011,
        "lon": -171.1846416207687,
        "alt_km": 831.4290503615684,
        "timestamp": "2025-12-22T14:45:57.689776+00:00",
        "meta_object_name": "FENGYUN 1C DEB",
        "meta_object_id": "1999-025DER",
        "meta_epoch": "2025-12-20T04:51:21.991104",
        "meta_mean_motion": 14.22745912,
        "meta_eccentricity": 0.00901757,
        "meta_inclination": 98.5789,
        "meta_ra_of_asc_node": 347.071,
        "meta_arg_of_pericenter": 9.8407,
        "meta_mean_anomaly": 350.4511,
        "meta_ephemeris_type": 0,
        "meta_classification_type": "U",
        "meta_norad_cat_id": 33656,
        "meta_element_set_no": 999,
        "meta_rev_at_epoch": 62815,
        "meta_bstar": 0.0003172493,
        "meta_mean_motion_dot": 6.98e-06,
        "meta_mean_motion_ddot": 0,
        "tle_line1": "1 33656U 99025DER 25354.20233786  .00000698  00000+0  31725-3 0  9991",
        "tle_line2": "2 33656  98.5789 347.0710 0090175   9.8407 350.4511 14.22745912628151"
      },
      "geometry": {
        "type": "Point",
        "coordinates": [
          -171.1846416207687,
          65.55391714545011
        ]
      }
    },
    {
      "type": "Feature",
      "properties": {
        "norad_id": 33658,
        "name": "FENGYUN 1C DEB",
        "group": "fengyun-1c-debris",
        "lat": -22.01221361838574,
        "lon": -34.269538073140616,
        "alt_km": 883.788895623692,
        "timestamp": "2025-12-22T14:45:57.689789+00:00",
        "meta_object_name": "FENGYUN 1C DEB",
        "meta_object_id": "1999-025DET",
        "meta_epoch": "2025-12-21T04:18:20.910816",
        "meta_mean_motion": 13.62407689,
        "meta_eccentricity": 0.02824588,
        "meta_inclination": 99.5635,
        "meta_ra_of_asc_node": 148.2286,
        "meta_arg_of_pericenter": 159.8991,
        "meta_mean_anomaly": 201.3543,
        "meta_ephemeris_type": 0,
        "meta_classification_type": "U",
        "meta_norad_cat_id": 33658,
        "meta_element_set_no": 999,
        "meta_rev_at_epoch": 58254,
        "meta_bstar": 0.001823251,
        "meta_mean_motion_dot": 1.806e-05,
        "meta_mean_motion_ddot": 0,
        "tle_line1": "1 33658U 99025DET 25355.17940869  .00001806  00000+0  18233-2 0  9997",
        "tle_line2": "2 33658  99.5635 148.2286 0282458 159.8991 201.3543 13.62407689582544"
      },
      "geometry": {
        "type": "Point",
        "coordinates": [
          -34.269538073140616,
          -22.01221361838574
        ]
      }
    },
    {
      "type": "Feature",
      "properties": {
        "norad_id": 33660,
        "name": "FENGYUN 1C DEB",
        "group": "fengyun-1c-debris",
        "lat": 65.22245142537025,
        "lon": 106.42168980483066,
        "alt_km": 936.562550161817,
        "timestamp": "2025-12-22T14:45:57.689799+00:00",
        "meta_object_name": "FENGYUN 1C DEB",
        "meta_object_id": "1999-025DEV",
        "meta_epoch": "2025-12-20T06:01:35.952384",
        "meta_mean_motion": 13.91779526,
        "meta_eccentricity": 0.0109795,
        "meta_inclination": 98.657,
        "meta_ra_of_asc_node": 264.9426,
        "meta_arg_of_pericenter": 225.2397,
        "meta_mean_anomaly": 290.4354,
        "meta_ephemeris_type": 0,
        "meta_classification_type": "U",
        "meta_norad_cat_id": 33660,
        "meta_element_set_no": 999,
        "meta_rev_at_epoch": 91168,
        "meta_bstar": 0.00029646,
        "meta_mean_motion_dot": 3.55e-06,
        "meta_mean_motion_ddot": 0,
        "tle_line1": "1 33660U 99025DEV 25354.25111056  .00000355  00000+0  29646-3 0  9995",
        "tle_line2": "2 33660  98.6570 264.9426 0109795 225.2397 290.4354 13.91779526911681"
      },
      "geometry": {
        "type": "Point",
        "coordinates": [
          106.42168980483066,
          65.22245142537025
        ]
      }
    },
    {
      "type": "Feature",
      "properties": {
        "norad_id": 33663,
        "name": "FENGYUN 1C DEB",
        "group": "fengyun-1c-debris",
        "lat": 1.4163773578715024,
        "lon": 168.77230659520828,
        "alt_km": 742.727646921332,
        "timestamp": "2025-12-22T14:45:57.689810+00:00",
        "meta_object_name": "FENGYUN 1C DEB",
        "meta_object_id": "1999-025DEY",
        "meta_epoch": "2025-12-19T16:59:12.916032",
        "meta_mean_motion": 14.62420934,
        "meta_eccentricity": 0.0080658,
        "meta_inclination": 98.8853,
        "meta_ra_of_asc_node": 345.4244,
        "meta_arg_of_pericenter": 352.5038,
        "meta_mean_anomaly": 7.4949,
        "meta_ephemeris_type": 0,
        "meta_classification_type": "U",
        "meta_norad_cat_id": 33663,
        "meta_element_set_no": 999,
        "meta_rev_at_epoch": 64304,
        "meta_bstar": 0.0040155279,
        "meta_mean_motion_dot": 0.00021295,
        "meta_mean_motion_ddot": 0,
        "tle_line1": "1 33663U 99025DEY 25353.70778838  .00021295  00000+0  40155-2 0  9997",
        "tle_line2": "2 33663  98.8853 345.4244 0080658 352.5038   7.4949 14.62420934643048"
      },
      "geometry": {
        "type": "Point",
        "coordinates": [
          168.77230659520828,
          1.4163773578715024
        ]
      }
    },
    {
      "type": "Feature",
      "properties": {
        "norad_id": 33664,
        "name": "FENGYUN 1C DEB",
        "group": "fengyun-1c-debris",
        "lat": 25.59261306531835,
        "lon": -30.84996757307406,
        "alt_km": 971.7019296208573,
        "timestamp": "2025-12-22T14:45:57.689820+00:00",
        "meta_object_name": "FENGYUN 1C DEB",
        "meta_object_id": "1999-025DEZ",
        "meta_epoch": "2025-12-17T09:11:19.801248",
        "meta_mean_motion": 14.03997505,
        "meta_eccentricity": 0.01641224,
        "meta_inclination": 98.6999,
        "meta_ra_of_asc_node": 139.9327,
        "meta_arg_of_pericenter": 27.0521,
        "meta_mean_anomaly": 333.9084,
        "meta_ephemeris_type": 0,
        "meta_classification_type": "U",
        "meta_norad_cat_id": 33664,
        "meta_element_set_no": 999,
        "meta_rev_at_epoch": 90804,
        "meta_bstar": 0.00016492349,
        "meta_mean_motion_dot": 2.52e-06,
        "meta_mean_motion_ddot": 0,
        "tle_line1": "1 33664U 99025DEZ 25351.38286807  .00000252  00000+0  16492-3 0  9998",
        "tle_line2": "2 33664  98.6999 139.9327 0164122  27.0521 333.9084 14.03997505908045"
      },
      "geometry": {
        "type": "Point",
        "coordinates": [
          -30.84996757307406,
          25.59261306531835
        ]
      }
    }
  ]
}